[{"OBJECT_NAME":"STARLINK-1553","OBJECT_ID":"2020-062Z","EPOCH":"2026-03-09T21:21:38.690496","MEAN_MOTION":15.36665572,"ECCENTRICITY":0.00049977,"INCLINATION":53.0381,"RA_OF_ASC_NODE":305.9588,"ARG_OF_PERICENTER":144.0342,"MEAN_ANOMALY":216.0997,"EPHEMERIS_TYPE":0,"CLASSIFICATION_TYPE":"U","NORAD_CAT_ID":46348,"ELEMENT_SET_NO":999,"REV_AT_EPOCH":30532,"BSTAR":0.00060638819,"MEAN_MOTION_DOT":0.00021714,"MEAN_MOTION_DDOT":0},{"OBJECT_NAME":"LEMUR-2-NIMBUS2000","OBJECT_ID":"2024-022A","EPOCH":"2026-03-09T13:28:11.970624","MEAN_MOTION":15.36761015,"ECCENTRICITY":0.00106365,"INCLINATION":97.4231,"RA_OF_ASC_NODE":277.4737,"ARG_OF_PERICENTER":113.743,"MEAN_ANOMALY":246.4931,"EPHEMERIS_TYPE":0,"CLASSIFICATION_TYPE":"U","NORAD_CAT_ID":58899,"ELEMENT_SET_NO":999,"REV_AT_EPOCH":11695,"BSTAR":0.0005061356,"MEAN_MOTION_DOT":0.00018151,"MEAN_MOTION_DDOT":0}]
